start=new Date('2022-09-24T00:00:00.000Z').valueOf();
sats=[{"MEAN_MOTION_DOT":"0.00002020","NORAD_CAT_ID":"45590","ELEMENT_SET_NO":"999","LAUNCH_DATE":"2020-04-22","CLASSIFICATION_TYPE":"U","PERIOD":"95.592","EPOCH":"2022-09-23T14:13:14.761344","CENTER_NAME":"EARTH","FILE":"3581681","COUNTRY_CODE":"US","BSTAR":"0.00015445000000","EPHEMERIS_TYPE":"0","APOAPSIS":"548.247","DECAY_DATE":null,"MEAN_ANOMALY":"301.9047","TLE_LINE2":"2 45590  53.0557  16.8864 0001475  58.2086 301.9047 15.06396137134721","MEAN_ELEMENT_THEORY":"SGP4","MEAN_MOTION":"15.06396137","ARG_OF_PERICENTER":"58.2086","REV_AT_EPOCH":"13472","MEAN_MOTION_DDOT":"0.0000000000000","OBJECT_TYPE":"PAYLOAD","TLE_LINE1":"1 45590U 20025BM  22266.59253196  .00002020  00000-0  15445-3 0  9996","ECCENTRICITY":"0.00014750","RCS_SIZE":"LARGE","INCLINATION":"53.0557","TIME_SYSTEM":"UTC","OBJECT_ID":"2020-025BM","SITE":"AFETR","GP_ID":"213331970","SEMIMAJOR_AXIS":"6925.360","REF_FRAME":"TEME","RA_OF_ASC_NODE":"16.8864","OBJECT_NAME":"STARLINK-1365","PERIAPSIS":"546.204"},{"REV_AT_EPOCH":"12834","MEAN_MOTION_DDOT":"0.0000000000000","OBJECT_TYPE":"PAYLOAD","TLE_LINE1":"1 45658U 20035B   22266.50037980  .00000083  00000-0  24443-4 0  9990","ECCENTRICITY":"0.00014710","DECAY_DATE":null,"MEAN_ANOMALY":"297.2118","MEAN_MOTION":"15.06396757","TLE_LINE2":"2 45658  53.0553 337.2925 0001471  62.9021 297.2118 15.06396757128342","MEAN_ELEMENT_THEORY":"SGP4","ARG_OF_PERICENTER":"62.9021","REF_FRAME":"TEME","RA_OF_ASC_NODE":"337.2925","PERIAPSIS":"546.205","OBJECT_NAME":"STARLINK-1441","RCS_SIZE":"LARGE","OBJECT_ID":"2020-035B","INCLINATION":"53.0553","TIME_SYSTEM":"UTC","SITE":"AFETR","GP_ID":"213299457","SEMIMAJOR_AXIS":"6925.358","CLASSIFICATION_TYPE":"U","PERIOD":"95.592","LAUNCH_DATE":"2020-06-04","MEAN_MOTION_DOT":"0.00000083","NORAD_CAT_ID":"45658","ELEMENT_SET_NO":"999","BSTAR":"0.00002444300000","COUNTRY_CODE":"US","EPHEMERIS_TYPE":"0","APOAPSIS":"548.242","EPOCH":"2022-09-23T12:00:32.814720","CENTER_NAME":"EARTH","FILE":"3581351"},{"MEAN_MOTION":"15.06395495","TLE_LINE2":"2 45659  53.0539 337.0012 0001214  96.7987 263.3140 15.06395495128340","MEAN_ELEMENT_THEORY":"SGP4","MEAN_ANOMALY":"263.3140","DECAY_DATE":null,"ARG_OF_PERICENTER":"96.7987","REV_AT_EPOCH":"12834","ECCENTRICITY":"0.00012140","TLE_LINE1":"1 45659U 20035C   22266.56947181  .00001250  00000-0  10280-3 0  9990","OBJECT_TYPE":"PAYLOAD","MEAN_MOTION_DDOT":"0.0000000000000","OBJECT_ID":"2020-035C","INCLINATION":"53.0539","TIME_SYSTEM":"UTC","RCS_SIZE":"LARGE","GP_ID":"213331975","SEMIMAJOR_AXIS":"6925.362","SITE":"AFETR","REF_FRAME":"TEME","PERIAPSIS":"546.387","OBJECT_NAME":"STARLINK-1442","RA_OF_ASC_NODE":"337.0012","MEAN_MOTION_DOT":"0.00001250","ELEMENT_SET_NO":"999","NORAD_CAT_ID":"45659","PERIOD":"95.592","CLASSIFICATION_TYPE":"U","LAUNCH_DATE":"2020-06-04","EPOCH":"2022-09-23T13:40:02.364384","FILE":"3581681","CENTER_NAME":"EARTH","BSTAR":"0.00010280000000","COUNTRY_CODE":"US","APOAPSIS":"548.068","EPHEMERIS_TYPE":"0"},{"LAUNCH_DATE":"2020-06-04","CLASSIFICATION_TYPE":"U","PERIOD":"95.592","MEAN_MOTION_DOT":"0.00000411","NORAD_CAT_ID":"45660","ELEMENT_SET_NO":"999","COUNTRY_CODE":"US","BSTAR":"0.00004650400000","EPHEMERIS_TYPE":"0","APOAPSIS":"548.213","EPOCH":"2022-09-23T13:52:00.916032","CENTER_NAME":"EARTH","FILE":"3581681","REV_AT_EPOCH":"12835","MEAN_MOTION_DDOT":"0.0000000000000","TLE_LINE1":"1 45660U 20035D   22266.57778838  .00000411  00000-0  46504-4 0  9991","OBJECT_TYPE":"PAYLOAD","ECCENTRICITY":"0.00014210","DECAY_DATE":null,"MEAN_ANOMALY":"291.5879","MEAN_ELEMENT_THEORY":"SGP4","TLE_LINE2":"2 45660  53.0555 336.9539 0001421  68.5262 291.5879 15.06395131128355","MEAN_MOTION":"15.06395131","ARG_OF_PERICENTER":"68.5262","REF_FRAME":"TEME","RA_OF_ASC_NODE":"336.9539","OBJECT_NAME":"STARLINK-1443","PERIAPSIS":"546.244","RCS_SIZE":"LARGE","INCLINATION":"53.0555","TIME_SYSTEM":"UTC","OBJECT_ID":"2020-035D","SEMIMAJOR_AXIS":"6925.363","GP_ID":"213332225","SITE":"AFETR"},{"BSTAR":"-0.00002474600000","COUNTRY_CODE":"US","EPHEMERIS_TYPE":"0","APOAPSIS":"548.196","EPOCH":"2022-09-23T15:54:05.395680","CENTER_NAME":"EARTH","FILE":"3581681","CLASSIFICATION_TYPE":"U","PERIOD":"95.593","LAUNCH_DATE":"2020-06-04","MEAN_MOTION_DOT":"-0.00000650","NORAD_CAT_ID":"45661","ELEMENT_SET_NO":"999","REF_FRAME":"TEME","RA_OF_ASC_NODE":"336.5812","PERIAPSIS":"546.273","OBJECT_NAME":"STARLINK-1444","RCS_SIZE":"LARGE","OBJECT_ID":"2020-035E","INCLINATION":"53.0553","TIME_SYSTEM":"UTC","GP_ID":"213330476","SEMIMAJOR_AXIS":"6925.370","SITE":"AFETR","REV_AT_EPOCH":"12836","MEAN_MOTION_DDOT":"0.0000000000000","TLE_LINE1":"1 45661U 20035E   22266.66256245 -.00000650  00000-0 -24746-4 0  9996","ECCENTRICITY":"0.00013880","OBJECT_TYPE":"PAYLOAD","MEAN_ANOMALY":"291.2578","DECAY_DATE":null,"MEAN_MOTION":"15.06393104","TLE_LINE2":"2 45661  53.0553 336.5812 0001388  68.8559 291.2578 15.06393104128360","MEAN_ELEMENT_THEORY":"SGP4","ARG_OF_PERICENTER":"68.8559"},{"REV_AT_EPOCH":"12797","ECCENTRICITY":"0.00011930","TLE_LINE1":"1 45662U 20035F   22266.47826859  .00001068  00000-0  90607-4 0  9991","OBJECT_TYPE":"PAYLOAD","MEAN_MOTION_DDOT":"0.0000000000000","TLE_LINE2":"2 45662  53.0578 337.3925 0001193  70.2047 289.9070 15.06393475127973","MEAN_ELEMENT_THEORY":"SGP4","MEAN_MOTION":"15.06393475","DECAY_DATE":null,"MEAN_ANOMALY":"289.9070","ARG_OF_PERICENTER":"70.2047","REF_FRAME":"TEME","OBJECT_NAME":"STARLINK-1445","PERIAPSIS":"546.407","RA_OF_ASC_NODE":"337.3925","INCLINATION":"53.0578","TIME_SYSTEM":"UTC","OBJECT_ID":"2020-035F","RCS_SIZE":"LARGE","GP_ID":"213277905","SEMIMAJOR_AXIS":"6925.369","SITE":"AFETR","LAUNCH_DATE":"2020-06-04","PERIOD":"95.593","CLASSIFICATION_TYPE":"U","MEAN_MOTION_DOT":"0.00001068","ELEMENT_SET_NO":"999","NORAD_CAT_ID":"45662","COUNTRY_CODE":"US","BSTAR":"0.00009060700000","APOAPSIS":"548.060","EPHEMERIS_TYPE":"0","EPOCH":"2022-09-23T11:28:42.406176","FILE":"3581254","CENTER_NAME":"EARTH"},{"EPHEMERIS_TYPE":"0","APOAPSIS":"548.239","BSTAR":"-0.00007483200000","COUNTRY_CODE":"US","CENTER_NAME":"EARTH","FILE":"3581681","EPOCH":"2022-09-23T16:20:38.143392","PERIOD":"95.593","CLASSIFICATION_TYPE":"U","LAUNCH_DATE":"2020-06-04","NORAD_CAT_ID":"45663","ELEMENT_SET_NO":"999","MEAN_MOTION_DOT":"-0.00001396","RA_OF_ASC_NODE":"336.4757","PERIAPSIS":"546.251","OBJECT_NAME":"STARLINK-1446","REF_FRAME":"TEME","GP_ID":"213331477","SITE":"AFETR","SEMIMAJOR_AXIS":"6925.380","RCS_SIZE":"LARGE","OBJECT_ID":"2020-035G","INCLINATION":"53.0558","TIME_SYSTEM":"UTC","MEAN_MOTION_DDOT":"0.0000000000000","TLE_LINE1":"1 45663U 20035G   22266.68099703 -.00001396  00000-0 -74832-4 0  9993","ECCENTRICITY":"0.00014350","OBJECT_TYPE":"PAYLOAD","REV_AT_EPOCH":"12836","ARG_OF_PERICENTER":"53.6414","DECAY_DATE":null,"MEAN_ANOMALY":"306.4707","MEAN_MOTION":"15.06389656","MEAN_ELEMENT_THEORY":"SGP4","TLE_LINE2":"2 45663  53.0558 336.4757 0001435  53.6414 306.4707 15.06389656128369"},{"GP_ID":"213331726","SEMIMAJOR_AXIS":"6925.360","SITE":"AFETR","INCLINATION":"53.0557","TIME_SYSTEM":"UTC","OBJECT_ID":"2020-035J","RCS_SIZE":"LARGE","OBJECT_NAME":"STARLINK-1448","PERIAPSIS":"546.310","RA_OF_ASC_NODE":"336.3440","REF_FRAME":"TEME","ARG_OF_PERICENTER":"69.6501","MEAN_ELEMENT_THEORY":"SGP4","TLE_LINE2":"2 45665  53.0557 336.3440 0001322  69.6501 290.4630 15.06396121128369","MEAN_MOTION":"15.06396121","DECAY_DATE":null,"MEAN_ANOMALY":"290.4630","TLE_LINE1":"1 45665U 20035J   22266.71416417  .00000018  00000-0  20077-4 0  9994","OBJECT_TYPE":"PAYLOAD","ECCENTRICITY":"0.00013220","MEAN_MOTION_DDOT":"0.0000000000000","REV_AT_EPOCH":"12836","FILE":"3581681","CENTER_NAME":"EARTH","EPOCH":"2022-09-23T17:08:23.784288","APOAPSIS":"548.141","EPHEMERIS_TYPE":"0","COUNTRY_CODE":"US","BSTAR":"0.00002007700000","ELEMENT_SET_NO":"999","NORAD_CAT_ID":"45665","MEAN_MOTION_DOT":"0.00000018","LAUNCH_DATE":"2020-06-04","CLASSIFICATION_TYPE":"U","PERIOD":"95.592"},{"MEAN_MOTION_DOT":"0.00002478","NORAD_CAT_ID":"45666","ELEMENT_SET_NO":"999","PERIOD":"95.592","CLASSIFICATION_TYPE":"U","LAUNCH_DATE":"2020-06-04","EPOCH":"2022-09-23T12:27:03.999456","CENTER_NAME":"EARTH","FILE":"3581351","BSTAR":"0.00018515000000","COUNTRY_CODE":"US","EPHEMERIS_TYPE":"0","APOAPSIS":"548.150","DECAY_DATE":null,"MEAN_ANOMALY":"279.2382","MEAN_MOTION":"15.06403424","TLE_LINE2":"2 45666  53.0552 337.1967 0001367  80.8762 279.2382 15.06403424128332","MEAN_ELEMENT_THEORY":"SGP4","ARG_OF_PERICENTER":"80.8762","REV_AT_EPOCH":"12833","MEAN_MOTION_DDOT":"0.0000000000000","ECCENTRICITY":"0.00013670","TLE_LINE1":"1 45666U 20035K   22266.51879629  .00002478  00000-0  18515-3 0  9996","OBJECT_TYPE":"PAYLOAD","RCS_SIZE":"LARGE","OBJECT_ID":"2020-035K","INCLINATION":"53.0552","TIME_SYSTEM":"UTC","SITE":"AFETR","GP_ID":"213298710","SEMIMAJOR_AXIS":"6925.338","REF_FRAME":"TEME","RA_OF_ASC_NODE":"337.1967","PERIAPSIS":"546.256","OBJECT_NAME":"STARLINK-1449"},{"COUNTRY_CODE":"US","BSTAR":"0.00013257000000","APOAPSIS":"548.172","EPHEMERIS_TYPE":"0","EPOCH":"2022-09-23T12:31:01.873344","FILE":"3581254","CENTER_NAME":"EARTH","LAUNCH_DATE":"2020-06-04","CLASSIFICATION_TYPE":"U","PERIOD":"95.592","MEAN_MOTION_DOT":"0.00001694","ELEMENT_SET_NO":"999","NORAD_CAT_ID":"45667","REF_FRAME":"TEME","OBJECT_NAME":"STARLINK-1450","PERIAPSIS":"546.273","RA_OF_ASC_NODE":"337.2264","TIME_SYSTEM":"UTC","INCLINATION":"53.0574","OBJECT_ID":"2020-035L","RCS_SIZE":"LARGE","SITE":"AFETR","GP_ID":"213277418","SEMIMAJOR_AXIS":"6925.358","REV_AT_EPOCH":"12798","ECCENTRICITY":"0.00013710","TLE_LINE1":"1 45667U 20035L   22266.52154946  .00001694  00000-0  13257-3 0  9993","OBJECT_TYPE":"PAYLOAD","MEAN_MOTION_DDOT":"0.0000000000000","MEAN_ELEMENT_THEORY":"SGP4","TLE_LINE2":"2 45667  53.0574 337.2264 0001371  73.2391 286.8748 15.06397029127980","MEAN_MOTION":"15.06397029","MEAN_ANOMALY":"286.8748","DECAY_DATE":null,"ARG_OF_PERICENTER":"73.2391"}];
